OBJECT_NAME,OBJECT_ID,EPOCH,MEAN_MOTION,ECCENTRICITY,INCLINATION,RA_OF_ASC_NODE,ARG_OF_PERICENTER,MEAN_ANOMALY,EPHEMERIS_TYPE,CLASSIFICATION_TYPE,NORAD_CAT_ID,ELEMENT_SET_NO,REV_AT_EPOCH,BSTAR,MEAN_MOTION_DOT,MEAN_MOTION_DDOT
BEIDOU-3 M16 (C35),2018-078A,2026-03-01T02:14:17.379744,1.86232242,.0008416,54.1872,303.7769,30.5698,329.5390,0,U,43647,999,5014,0,-.42E-6,0
BEIDOU-3 M15 (C34),2018-078B,2026-03-01T05:20:28.032288,1.86232035,.0005146,54.1835,303.7733,35.7790,324.3153,0,U,43648,999,5016,0,-.43E-6,0
BEIDOU-3 G1 (C59),2018-085A,2026-03-01T13:17:17.641824,1.00269352,.0001254,2.8027,100.4722,33.4453,4.8085,0,U,43683,999,2698,0,-.296E-5,0
BEIDOU-3 M17 (C36),2018-093A,2026-03-01T10:36:11.488032,1.86228310,.0006947,54.1716,185.9513,297.5558,102.4053,0,U,43706,999,4953,0,-.31E-6,0
BEIDOU-3 M18 (C37),2018-093B,2026-03-01T05:51:49.978080,1.86226359,.0006014,54.1727,185.9497,341.9968,17.9329,0,U,43707,999,4952,0,-.31E-6,0
BEIDOU-3 IGSO-1 (C38),2019-023A,2026-03-01T07:52:47.339616,1.00271445,.0026,58.5492,38.7573,236.5602,121.2372,0,U,44204,999,612,0,-.199E-5,0
BEIDOU-2 G8 (C01),2019-027A,2026-03-01T11:49:51.806208,1.00268458,.0009232,1.8600,74.7272,268.4054,138.1249,0,U,44231,999,2500,0,-.266E-5,0
BEIDOU-3 IGSO-2 (C39),2019-035A,2026-02-26T16:31:51.989952,1.00247364,.00387345,55.2338,159.8353,206.4752,153.7223,0,U,44337,999,2456,0,-.176E-5,0
BEIDOU-3 M24 (C46),2019-061A,2026-03-01T07:32:39.827040,1.86228845,.0008651,54.3998,186.3652,22.0339,337.9537,0,U,44542,999,4378,0,-.31E-6,0
BEIDOU-3 M23 (C45),2019-061B,2026-03-01T02:36:29.113056,1.86227192,.00051022,54.3976,186.3407,14.1129,120.2476,0,U,44543,999,4378,0,-.31E-6,0
BEIDOU-3 IGSO-3 (C40),2019-073A,2026-02-28T00:19:05.143872,1.00270708,.00403779,54.9854,282.0779,189.1116,170.8905,0,U,44709,999,2336,0,-.145E-5,0
BEIDOU-3 M22 (C44),2019-078A,2026-02-28T01:54:59.619744,1.86231871,.00072213,54.0347,303.6688,34.9561,325.1493,0,U,44793,999,4261,0,-.39E-6,0
BEIDOU-3 M21 (C43),2019-078B,2026-02-28T05:15:49.599648,1.86227562,.00056611,54.0076,303.6269,36.1333,323.9632,0,U,44794,999,4262,0,-.4E-6,0
BEIDOU-3 M19 (C41),2019-090A,2026-03-01T02:41:11.194368,1.86231174,.00203872,56.4646,66.3615,291.2005,143.7912,0,U,44864,999,4222,0,-.1E-7,0
BEIDOU-3 M20 (C42),2019-090B,2026-03-01T09:37:22.313280,1.86231096,.001782,56.4665,66.3862,302.6987,55.6736,0,U,44865,999,4220,0,-.2E-7,0
BEIDOU-3 G2 (C60),2020-017A,2026-03-01T04:16:00.625728,1.00271121,.0002681,2.6474,45.5064,298.6811,318.8170,0,U,45344,999,2217,0,-.157E-5,0
BEIDOU-3 G3 (C61),2020-040A,2026-02-28T14:43:08.523840,1.00264554,.0004911,2.1795,67.0969,316.5656,105.9394,0,U,45807,999,2098,0,-.37E-5,0
BEIDOU-3 G4 (C62),2023-066A,2026-03-01T11:39:38.653056,1.00271975,.0001829,0.6544,310.4982,163.9264,19.7943,0,U,56564,999,1031,0,-.13E-5,0
BEIDOU-3 M28 (C50),2023-207A,2026-02-28T07:07:27.835680,1.86229645,.00048672,55.6562,65.9752,301.5322,58.4601,0,U,58654,999,1481,0,-.2E-7,0
BEIDOU-3 M26 (C48),2023-207B,2026-03-01T04:02:15.809856,1.86229561,.000571,55.6592,65.9320,287.4313,72.5442,0,U,58655,999,1481,0,-.4E-7,0
BEIDOU-3 M25 (C47),2024-168B,2026-03-01T06:01:48.762048,1.86229934,.0004308,54.5685,305.9942,317.7219,214.9030,0,U,61186,999,977,0,-.47E-6,0
BEIDOU-3 M27 (C49),2024-168C,2026-02-27T20:46:32.748384,1.86230003,.00028954,54.5652,306.0258,18.1383,80.5013,0,U,61187,999,722,0,-.44E-6,0