BEIDOU-3 M16 (C35)      
1 43647U 18078A   26060.09325671 -.00000042  00000+0  00000+0 0  9990
2 43647  54.1872 303.7769 0008416  30.5698 329.5390  1.86232242 50149
BEIDOU-3 M15 (C34)      
1 43648U 18078B   26060.22254667 -.00000043  00000+0  00000+0 0  9993
2 43648  54.1835 303.7733 0005146  35.7790 324.3153  1.86232035 50169
BEIDOU-3 G1 (C59)       
1 43683U 18085A   26060.55367641 -.00000296  00000+0  00000+0 0  9993
2 43683   2.8027 100.4722 0001254  33.4453   4.8085  1.00269352 26983
BEIDOU-3 M17 (C36)      
1 43706U 18093A   26060.44179963 -.00000031  00000+0  00000+0 0  9991
2 43706  54.1716 185.9513 0006947 297.5558 102.4053  1.86228310 49532
BEIDOU-3 M18 (C37)      
1 43707U 18093B   26060.24432845 -.00000031  00000+0  00000+0 0  9991
2 43707  54.1727 185.9497 0006014 341.9968  17.9329  1.86226359 49526
BEIDOU-3 IGSO-1 (C38)   
1 44204U 19023A   26060.32832569 -.00000199  00000+0  00000+0 0  9999
2 44204  58.5492  38.7573 0026000 236.5602 121.2372  1.00271445  6125
BEIDOU-2 G8 (C01)       
1 44231U 19027A   26060.49296072 -.00000266  00000+0  00000+0 0  9999
2 44231   1.8600  74.7272 0009232 268.4054 138.1249  1.00268458 25004
BEIDOU-3 IGSO-2 (C39)   
1 44337U 19035A   26057.68879618 -.00000176  00000+0  00000+0 0  9995
2 44337  55.2338 159.8353 0038734 206.4752 153.7223  1.00247364 24561
BEIDOU-3 M24 (C46)      
1 44542U 19061A   26060.31434985 -.00000031  00000+0  00000+0 0  9990
2 44542  54.3998 186.3652 0008651  22.0339 337.9537  1.86228845 43782
BEIDOU-3 M23 (C45)      
1 44543U 19061B   26060.10867029 -.00000031  00000+0  00000+0 0  9997
2 44543  54.3976 186.3407 0005102  14.1129 120.2476  1.86227192 43783
BEIDOU-3 IGSO-3 (C40)   
1 44709U 19073A   26059.01325398 -.00000145  00000+0  00000+0 0  9996
2 44709  54.9854 282.0779 0040377 189.1116 170.8905  1.00270708 23363
BEIDOU-3 M22 (C44)      
1 44793U 19078A   26059.07985671 -.00000039  00000+0  00000+0 0  9998
2 44793  54.0347 303.6688 0007221  34.9561 325.1493  1.86231871 42613
BEIDOU-3 M21 (C43)      
1 44794U 19078B   26059.21932407 -.00000040  00000+0  00000+0 0  9996
2 44794  54.0076 303.6269 0005661  36.1333 323.9632  1.86227562 42629
BEIDOU-3 M19 (C41)      
1 44864U 19090A   26060.11193512 -.00000001  00000+0  00000+0 0  9992
2 44864  56.4646  66.3615 0020387 291.2005 143.7912  1.86231174 42225
BEIDOU-3 M20 (C42)      
1 44865U 19090B   26060.40095270 -.00000002  00000+0  00000+0 0  9998
2 44865  56.4665  66.3862 0017820 302.6987  55.6736  1.86231096 42201
BEIDOU-3 G2 (C60)       
1 45344U 20017A   26060.17778502 -.00000157  00000+0  00000+0 0  9993
2 45344   2.6474  45.5064 0002681 298.6811 318.8170  1.00271121 22176
BEIDOU-3 G3 (C61)       
1 45807U 20040A   26059.61329310 -.00000370  00000+0  00000+0 0  9996
2 45807   2.1795  67.0969 0004911 316.5656 105.9394  1.00264554 20981
BEIDOU-3 G4 (C62)       
1 56564U 23066A   26060.48586404 -.00000130  00000+0  00000+0 0  9999
2 56564   0.6544 310.4982 0001829 163.9264  19.7943  1.00271975 10315
BEIDOU-3 M28 (C50)      
1 58654U 23207A   26059.29684995 -.00000002  00000+0  00000+0 0  9997
2 58654  55.6562  65.9752 0004867 301.5322  58.4601  1.86229645 14815
BEIDOU-3 M26 (C48)      
1 58655U 23207B   26060.16823854 -.00000004  00000+0  00000+0 0  9997
2 58655  55.6592  65.9320 0005710 287.4313  72.5442  1.86229561 14817
BEIDOU-3 M25 (C47)      
1 61186U 24168B   26060.25125882 -.00000047  00000+0  00000+0 0  9990
2 61186  54.5685 305.9942 0004308 317.7219 214.9030  1.86229934  9770
BEIDOU-3 M27 (C49)      
1 61187U 24168C   26058.86565681 -.00000044  00000+0  00000+0 0  9997
2 61187  54.5652 306.0258 0002895  18.1383  80.5013  1.86230003  7225
